MESON-1                 
1 59131U 24043AK  26068.90019075  .00008544  00000+0  29748-3 0  9998
2 59131  97.5469 205.2839 0009545 227.1432 132.9007 15.29893494111890
STARLINK-32846          
1 62867U 25022P   26068.44283041  .00018349  00000+0  63015-3 0  9990
2 62867  53.1582 130.6518 0001397  79.6401 280.4757 15.30198612 61866
